[{"OBJECT_NAME":"KHALIFASAT","OBJECT_ID":"2018-084F","EPOCH":"2026-03-09T22:37:07.705056","MEAN_MOTION":15.0097364,"ECCENTRICITY":0.00062701,"INCLINATION":98.0864,"RA_OF_ASC_NODE":247.4233,"ARG_OF_PERICENTER":83.8573,"MEAN_ANOMALY":276.3364,"EPHEMERIS_TYPE":0,"CLASSIFICATION_TYPE":"U","NORAD_CAT_ID":43676,"ELEMENT_SET_NO":999,"REV_AT_EPOCH":40088,"BSTAR":0.00043724412,"MEAN_MOTION_DOT":5.516e-5,"MEAN_MOTION_DDOT":0},{"OBJECT_NAME":"STARLINK-5621","OBJECT_ID":"2023-014AV","EPOCH":"2026-03-09T12:37:34.475808","MEAN_MOTION":14.98333744,"ECCENTRICITY":0.0003527,"INCLINATION":69.9991,"RA_OF_ASC_NODE":104.894,"ARG_OF_PERICENTER":271.7777,"MEAN_ANOMALY":88.2979,"EPHEMERIS_TYPE":0,"CLASSIFICATION_TYPE":"U","NORAD_CAT_ID":55434,"ELEMENT_SET_NO":999,"REV_AT_EPOCH":17104,"BSTAR":0.00010844512,"MEAN_MOTION_DOT":1.201e-5,"MEAN_MOTION_DDOT":0}]
